{"fetched_at":"2026-03-30T06:02:59Z","count":15439,"tles":[{"name":"STARLINK-4584","line1":"1 53571U 22101AW  26087.95052054  .00001363  00000+0  10371-3 0  9997","line2":"2 53571  53.2185 327.6034 0001304  93.9343 266.1798 15.08838834200044","category":"Starlink"}]}