{
  "norad_id": 53571,
  "name": "STARLINK-4584",
  "history": [
    {
      "epoch": "2026-03-28T22:48:44.974656Z",
      "apogee_km": 540.6490450293986,
      "perigee_km": 538.8448608944673,
      "latitude_deg": -1.9051062870905315e-05,
      "longitude_deg": 159.05237969435763,
      "height_km": 540.7047541407519,
      "semi_major_axis_km": 6917.883952961933,
      "eccentricity": 0.0001304,
      "inclination_deg": 53.2185,
      "raan_deg": 327.6034,
      "arg_perigee_deg": 93.9343,
      "mean_anomaly_deg": 266.1798,
      "mean_motion_rev_day": 15.08838834
    }
  ]
}